GPS BIIR-2  (PRN 13)    
1 24876U 97035A   23013.26451959  .00000062  00000+0  00000+0 0  9997
2 24876  55.5435 147.4854 0065682  53.0376 307.5393  2.00563926186862
GPS BIIR-4  (PRN 20)    
1 26360U 00025A   23013.87068955 -.00000042  00000+0  00000+0 0  9996
2 26360  54.2328  70.1893 0046303 193.5657 334.7695  2.00557436166195
GPS BIIR-6  (PRN 22)    
1 26605U 00071A   23013.68949795  .00000056  00000+0  00000+0 0  9992
2 26605  55.1313 144.3720 0139735 255.2075 264.6907  2.00573459162439
GPS BIIR-8  (PRN 16)    
1 27663U 03005A   23013.67051795  .00000017  00000+0  00000+0 0  9997
2 27663  55.3763 264.7084 0131304  42.4408 316.0286  2.00552256146228
GPS BIIR-9  (PRN 21)    
1 27704U 03010A   23013.85079649 -.00000060  00000+0  00000+0 0  9996
2 27704  55.0851  14.7966 0249308 311.7447  35.0258  2.00565121145029
GPS BIIR-11 (PRN 19)    
1 28190U 04009A   23013.69439616 -.00000061  00000+0  00000+0 0  9992
2 28190  55.8672 325.7350 0088429 128.5476  43.3115  2.00572620137860
GPS BIIR-13 (PRN 02)    
1 28474U 04045A   23013.17134756 -.00000061  00000+0  00000+0 0  9997
2 28474  55.4100  15.0447 0202900 283.0233  83.0126  2.00562041133341
GPS BIIRM-1 (PRN 17)    
1 28874U 05038A   23013.66619167 -.00000060  00000+0  00000+0 0  9991
2 28874  55.9253 323.1784 0140121 277.7744 262.7384  2.00561375126757
GPS BIIRM-2 (PRN 31)    
1 29486U 06042A   23013.57312565  .00000107  00000+0  00000+0 0  9990
2 29486  54.6975 200.9255 0106828  27.1117   1.9376  2.00567061119312
GPS BIIRM-3 (PRN 12)    
1 29601U 06052A   23012.98554917  .00000016  00000+0  00000+0 0  9992
2 29601  55.3901 263.6827 0086131  75.6104 285.4181  2.00562892118316
GPS BIIRM-4 (PRN 15)    
1 32260U 07047A   23013.78571588  .00000032  00000+0  00000+0 0  9992
2 32260  53.3784 131.8242 0145426  66.9301 294.5852  2.00564219111730
GPS BIIRM-5 (PRN 29)    
1 32384U 07062A   23013.82764354 -.00000060  00000+0  00000+0 0  9998
2 32384  56.0506 323.9611 0019759 144.2119  14.2533  2.00573055110436
GPS BIIRM-6 (PRN 07)    
1 32711U 08012A   23013.20228733  .00000103  00000+0  00000+0 0  9993
2 32711  54.4613 199.8276 0167773 232.6456 125.8318  2.00571584108661
GPS BIIRM-8 (PRN 05)    
1 35752U 09043A   23013.68494567 -.00000036  00000+0  00000+0 0  9994
2 35752  55.2377  77.0762 0055776  64.1745 297.1833  2.00572888 98289
GPS BIIF-1  (PRN 25)    
1 36585U 10022A   23013.40541281  .00000026  00000+0  00000+0 0  9992
2 36585  54.6799 259.0394 0109056  57.5947 224.1524  2.00576408 92507
GPS BIIF-2  (PRN 01)    
1 37753U 11036A   23013.85510517 -.00000054  00000+0  00000+0 0  9995
2 37753  56.6865  20.5228 0120134  52.9324 273.1020  2.00566643 84197
GPS BIIF-3  (PRN 24)    
1 38833U 12053A   23012.88890176  .00000099  00000+0  00000+0 0  9997
2 38833  53.5191 194.7775 0134921  49.7027 311.4769  2.00564166 74349
GPS BIIF-4  (PRN 27)    
1 39166U 13023A   23013.74463391 -.00000058  00000+0  00000+0 0  9992
2 39166  55.5455 319.4656 0109886  38.5651 322.2275  2.00565132 70802
GPS BIIF-5  (PRN 30)    
1 39533U 14008A   23013.24884694  .00000102  00000+0  00000+0 0  9991
2 39533  53.6094 200.2923 0061355 209.2086 150.4649  2.00565311 64593
GPS BIIF-6  (PRN 06)    
1 39741U 14026A   23013.52591802 -.00000056  00000+0  00000+0 0  9998
2 39741  56.6440  20.0603 0030380 306.8338  52.9203  2.00573813 63455
GPS BIIF-7  (PRN 09)    
1 40105U 14045A   23013.61723525  .00000046  00000+0  00000+0 0  9992
2 40105  54.7439 138.4111 0023756 114.2147 246.0187  2.00561320 60997
GPS BIIF-8  (PRN 03)    
1 40294U 14068A   23013.48765739 -.00000033  00000+0  00000+0 0  9991
2 40294  55.9807  79.6510 0042229  57.3634 303.1029  2.00555933 60129
GPS BIIF-9  (PRN 26)    
1 40534U 15013A   23013.62404773  .00000032  00000+0  00000+0 0  9991
2 40534  53.5793 255.9838 0076628  23.1674 337.2515  2.00569021 56745
GPS BIIF-10 (PRN 08)    
1 40730U 15033A   23013.28431613 -.00000058  00000+0  00000+0 0  9995
2 40730  55.0391 318.2117 0081089   9.4504 350.7158  2.00567245 54908
GPS BIIF-11 (PRN 10)    
1 41019U 15062A   23013.33770731 -.00000033  00000+0  00000+0 0  9994
2 41019  55.9670  79.5034 0085368 220.1203 139.3049  2.00562368 52746
GPS BIIF-12 (PRN 32)    
1 41328U 16007A   23012.92585002  .00000047  00000+0  00000+0 0  9990
2 41328  54.9554 139.1606 0066367 230.8426 128.5501  2.00560836 50749
GPS BIII-1  (PRN 04)    
1 43873U 18109A   23012.82908060  .00000051  00000+0  00000+0 0  9999
2 43873  55.1335 141.6291 0022887 189.1537 350.8225  2.00557910 29975
GPS BIII-2  (PRN 18)    
1 44506U 19056A   23013.70953712 -.00000057  00000+0  00000+0 0  9994
2 44506  55.7618  20.6978 0029851 186.6817 169.7472  2.00560814 24982
GPS BIII-3  (PRN 23)    
1 45854U 20041A   23013.56082243 -.00000035  00000+0  00000+0 0  9999
2 45854  55.6869  77.9750 0029784 184.9280   5.2082  2.00567164 18955
GPS BIII-4  (PRN 14)    
1 46826U 20078A   23014.05663583  .00000025  00000+0  00000+0 0  9994
2 46826  54.4363 261.5456 0025637 189.0077 335.4079  2.00564766 16427
GPS BIII-5  (PRN 11)    
1 48859U 21054A   23012.05464949 -.00000065  00000+0  00000+0 0  9995
2 48859  55.2723  22.6613 0009163 218.2672 124.8770  2.00562018 11631
